{
  "type": "FeatureCollection",
  "features": [
    {
      "type": "Feature",
      "geometry": {
        "type": "LineString",
        "coordinates": [
          [
            3.083488,
            36.742879,
            19
          ],
          [
            3.083539,
            36.742843,
            19
          ],
          [
            3.08378,
            36.743062,
            18
          ],
          [
            3.08385,
            36.743128,
            18
          ],
          [
            3.084263,
            36.743519,
            18
          ],
          [
            3.084287,
            36.743543,
            18
          ],
          [
            3.084526,
            36.743741,
            18
          ],
          [
            3.084644,
            36.743788,
            17
          ],
          [
            3.084662,
            36.74387,
            17
          ],
          [
            3.0847,
            36.743919,
            17
          ],
          [
            3.084888,
            36.744096,
            16
          ],
          [
            3.084941,
            36.744145,
            16
          ],
          [
            3.085945,
            36.745097,
            13
          ],
          [
            3.085995,
            36.745153,
            13
          ],
          [
            3.086028,
            36.745198,
            13
          ],
          [
            3.08603,
            36.745239,
            13
          ],
          [
            3.086033,
            36.745282,
            13
          ],
          [
            3.08603,
            36.745327,
            13
          ],
          [
            3.086033,
            36.74537,
            13
          ],
          [
            3.086054,
            36.745432,
            12
          ],
          [
            3.0861,
            36.74551,
            12
          ],
          [
            3.086156,
            36.745602,
            12
          ],
          [
            3.086285,
            36.745725,
            12
          ],
          [
            3.086398,
            36.745834,
            11
          ],
          [
            3.08669,
            36.746085,
            10
          ],
          [
            3.086814,
            36.745993,
            10
          ],
          [
            3.08669,
            36.746085,
            10
          ],
          [
            3.086813,
            36.745993,
            10
          ],
          [
            3.092294,
            36.745218,
            0
          ],
          [
            3.092262,
            36.745165,
            6
          ],
          [
            3.092293,
            36.745217,
            5
          ],
          [
            3.092262,
            36.745165,
            6
          ],
          [
            3.092294,
            36.745218,
            6
          ],
          [
            3.097413,
            36.743263,
            0
          ],
          [
            3.097389,
            36.743217,
            8
          ],
          [
            3.097414,
            36.743262,
            8
          ],
          [
            3.097389,
            36.743217,
            8
          ],
          [
            3.097413,
            36.743263,
            8
          ],
          [
            3.10409,
            36.740719,
            0
          ],
          [
            3.104064,
            36.740673,
            8
          ],
          [
            3.10409,
            36.740719,
            8
          ],
          [
            3.104064,
            36.740673,
            8
          ],
          [
            3.10409,
            36.740719,
            8
          ],
          [
            3.113677,
            36.737032,
            0
          ],
          [
            3.113656,
            36.736997,
            9
          ],
          [
            3.113676,
            36.737033,
            9
          ],
          [
            3.113711,
            36.737086,
            11
          ],
          [
            3.114258,
            36.736876,
            11
          ],
          [
            3.114545,
            36.736766,
            12
          ],
          [
            3.114773,
            36.73668,
            12
          ],
          [
            3.115288,
            36.736484,
            13
          ],
          [
            3.11595,
            36.736242,
            12
          ],
          [
            3.116157,
            36.736166,
            12
          ],
          [
            3.116321,
            36.736106,
            13
          ],
          [
            3.116302,
            36.736074,
            13
          ],
          [
            3.116286,
            36.736042,
            13
          ],
          [
            3.116262,
            36.735999,
            13
          ],
          [
            3.116752,
            36.735827,
            15
          ],
          [
            3.117232,
            36.735646,
            15
          ],
          [
            3.117334,
            36.73561,
            15
          ],
          [
            3.117428,
            36.735582,
            15
          ],
          [
            3.11756,
            36.735547,
            15
          ],
          [
            3.117587,
            36.735625,
            15
          ],
          [
            3.1176,
            36.735657,
            15
          ],
          [
            3.117629,
            36.735713,
            15
          ],
          [
            3.117635,
            36.735683,
            15
          ],
          [
            3.117646,
            36.735655,
            15
          ],
          [
            3.117656,
            36.73564,
            15
          ],
          [
            3.117664,
            36.735625,
            15
          ],
          [
            3.117683,
            36.735605,
            14
          ],
          [
            3.117702,
            36.735588,
            14
          ],
          [
            3.117723,
            36.735571,
            14
          ],
          [
            3.118023,
            36.735456,
            12
          ],
          [
            3.118177,
            36.735713,
            12
          ],
          [
            3.118311,
            36.735943,
            12
          ],
          [
            3.118177,
            36.735714,
            12
          ],
          [
            3.124631,
            36.732817,
            0
          ],
          [
            3.124742,
            36.732896,
            5
          ],
          [
            3.124633,
            36.732817,
            5
          ],
          [
            3.124742,
            36.732896,
            5
          ],
          [
            3.124631,
            36.732817,
            5
          ],
          [
            3.13016,
            36.730278,
            0
          ],
          [
            3.130186,
            36.730392,
            5
          ],
          [
            3.130161,
            36.730279,
            6
          ],
          [
            3.130186,
            36.730392,
            5
          ],
          [
            3.13016,
            36.730278,
            5
          ],
          [
            3.136052,
            36.729498,
            0
          ],
          [
            3.13605,
            36.729464,
            15
          ],
          [
            3.136051,
            36.729498,
            17
          ],
          [
            3.13605,
            36.729464,
            15
          ],
          [
            3.136052,
            36.729498,
            15
          ],
          [
            3.143435,
            36.727811,
            0
          ],
          [
            3.143495,
            36.72793,
            30
          ],
          [
            3.143448,
            36.727839,
            30
          ],
          [
            3.143495,
            36.72793,
            30
          ],
          [
            3.143435,
            36.727811,
            30
          ],
          [
            3.150803,
            36.725881,
            0
          ],
          [
            3.150837,
            36.725829,
            34
          ],
          [
            3.150803,
            36.72588,
            34
          ],
          [
            3.150837,
            36.725829,
            34
          ],
          [
            3.150803,
            36.725881,
            34
          ],
          [
            3.161369,
            36.731269,
            0
          ],
          [
            3.16138,
            36.731202,
            30
          ],
          [
            3.161368,
            36.73127,
            30
          ],
          [
            3.16138,
            36.731202,
            30
          ],
          [
            3.161369,
            36.731269,
            30
          ],
          [
            3.167029,
            36.732199,
            0
          ],
          [
            3.167074,
            36.732134,
            38
          ],
          [
            3.16703,
            36.7322,
            37
          ],
          [
            3.167074,
            36.732134,
            38
          ],
          [
            3.167029,
            36.732199,
            38
          ],
          [
            3.173293,
            36.732554,
            0
          ],
          [
            3.173293,
            36.732493,
            28
          ],
          [
            3.173293,
            36.732555,
            27
          ],
          [
            3.173293,
            36.732493,
            28
          ],
          [
            3.173706,
            36.732491,
            29
          ],
          [
            3.174168,
            36.73248,
            30
          ],
          [
            3.174197,
            36.732439,
            30
          ],
          [
            3.174256,
            36.732353,
            31
          ],
          [
            3.174275,
            36.732304,
            31
          ],
          [
            3.17428,
            36.732181,
            31
          ],
          [
            3.174278,
            36.731957,
            31
          ],
          [
            3.174275,
            36.731517,
            31
          ],
          [
            3.174267,
            36.731151,
            32
          ],
          [
            3.174235,
            36.730547,
            30
          ],
          [
            3.174229,
            36.729795,
            30
          ],
          [
            3.174229,
            36.729741,
            30
          ],
          [
            3.17422,
            36.729481,
            30
          ],
          [
            3.174323,
            36.729479,
            30
          ],
          [
            3.17422,
            36.72948,
            30
          ],
          [
            3.174323,
            36.729478,
            30
          ],
          [
            3.17697,
            36.724481,
            0
          ],
          [
            3.176902,
            36.724447,
            24
          ],
          [
            3.176971,
            36.724481,
            24
          ],
          [
            3.176902,
            36.724447,
            24
          ],
          [
            3.177083,
            36.72421,
            24
          ],
          [
            3.177402,
            36.723791,
            23
          ],
          [
            3.177539,
            36.72361,
            23
          ],
          [
            3.177976,
            36.722991,
            24
          ],
          [
            3.178398,
            36.7224,
            22
          ],
          [
            3.178711,
            36.721946,
            20
          ],
          [
            3.179041,
            36.721499,
            21
          ],
          [
            3.179409,
            36.720966,
            19
          ],
          [
            3.179529,
            36.720791,
            18
          ],
          [
            3.179575,
            36.720811,
            18
          ],
          [
            3.179667,
            36.720854,
            18
          ],
          [
            3.179859,
            36.720589,
            18
          ],
          [
            3.179937,
            36.720417,
            19
          ],
          [
            3.180101,
            36.720162,
            19
          ],
          [
            3.180297,
            36.719912,
            18
          ],
          [
            3.180441,
            36.719798,
            16
          ],
          [
            3.180608,
            36.719684,
            15
          ],
          [
            3.180694,
            36.71963,
            15
          ],
          [
            3.180766,
            36.719575,
            14
          ],
          [
            3.180897,
            36.719667,
            14
          ],
          [
            3.180991,
            36.719727,
            14
          ],
          [
            3.181707,
            36.720239,
            16
          ],
          [
            3.181756,
            36.720273,
            16
          ],
          [
            3.182005,
            36.720452,
            15
          ],
          [
            3.182045,
            36.720488,
            14
          ],
          [
            3.182094,
            36.720559,
            14
          ],
          [
            3.182107,
            36.720592,
            14
          ],
          [
            3.182115,
            36.720615,
            14
          ],
          [
            3.182257,
            36.720998,
            17
          ],
          [
            3.182327,
            36.721105,
            17
          ],
          [
            3.182381,
            36.721161,
            17
          ],
          [
            3.182445,
            36.721219,
            17
          ],
          [
            3.182619,
            36.721344,
            18
          ],
          [
            3.182837,
            36.721511,
            18
          ],
          [
            3.182818,
            36.721527,
            18
          ],
          [
            3.182837,
            36.721512,
            18
          ],
          [
            3.183153,
            36.721755,
            19
          ],
          [
            3.183384,
            36.721905,
            19
          ],
          [
            3.184119,
            36.722494,
            14
          ],
          [
            3.184089,
            36.722505,
            15
          ],
          [
            3.18407,
            36.722522,
            15
          ],
          [
            3.184011,
            36.722647,
            15
          ],
          [
            3.184207,
            36.722791,
            15
          ],
          [
            3.184231,
            36.722823,
            15
          ],
          [
            3.184253,
            36.722885,
            15
          ],
          [
            3.184207,
            36.723313,
            17
          ],
          [
            3.184653,
            36.723358,
            15
          ],
          [
            3.184851,
            36.723395,
            15
          ],
          [
            3.184848,
            36.723442,
            15
          ],
          [
            3.18484,
            36.72355,
            14
          ],
          [
            3.184824,
            36.723709,
            14
          ],
          [
            3.184714,
            36.724162,
            16
          ],
          [
            3.184667,
            36.724321,
            16
          ],
          [
            3.184749,
            36.724337,
            15
          ],
          [
            3.184666,
            36.724324,
            16
          ],
          [
            3.184784,
            36.724346,
            16
          ],
          [
            3.184065,
            36.732251,
            0
          ],
          [
            3.183944,
            36.732263,
            25
          ],
          [
            3.184065,
            36.73225,
            24
          ],
          [
            3.183944,
            36.732263,
            25
          ],
          [
            3.184065,
            36.732251,
            25
          ],
          [
            3.184909,
            36.737328,
            0
          ],
          [
            3.184829,
            36.737333,
            29
          ],
          [
            3.18491,
            36.737327,
            29
          ],
          [
            3.184829,
            36.737333,
            29
          ],
          [
            3.184909,
            36.737328,
            29
          ],
          [
            3.18609,
            36.740974,
            0
          ],
          [
            3.185991,
            36.740998,
            17
          ],
          [
            3.18609,
            36.740975,
            17
          ],
          [
            3.185991,
            36.740998,
            17
          ],
          [
            3.186216,
            36.741602,
            17
          ],
          [
            3.186222,
            36.741635,
            17
          ],
          [
            3.186267,
            36.741871,
            16
          ],
          [
            3.186377,
            36.742163,
            16
          ],
          [
            3.186415,
            36.742273,
            16
          ],
          [
            3.186431,
            36.742307,
            16
          ],
          [
            3.186466,
            36.7424,
            15
          ],
          [
            3.186766,
            36.743135,
            14
          ],
          [
            3.186836,
            36.743328,
            13
          ],
          [
            3.187056,
            36.743949,
            12
          ],
          [
            3.187404,
            36.744925,
            12
          ],
          [
            3.187564,
            36.74535,
            12
          ],
          [
            3.187643,
            36.745331,
            12
          ],
          [
            3.187565,
            36.745352,
            12
          ],
          [
            3.187657,
            36.745596,
            12
          ],
          [
            3.187702,
            36.745723,
            12
          ],
          [
            3.187734,
            36.745802,
            12
          ],
          [
            3.187788,
            36.745918,
            12
          ],
          [
            3.187852,
            36.746034,
            12
          ],
          [
            3.187901,
            36.74609,
            12
          ],
          [
            3.188013,
            36.746187,
            12
          ],
          [
            3.188196,
            36.746256,
            12
          ],
          [
            3.188555,
            36.746387,
            13
          ],
          [
            3.190569,
            36.746969,
            11
          ],
          [
            3.190639,
            36.746988,
            10
          ],
          [
            3.190974,
            36.747085,
            10
          ],
          [
            3.191001,
            36.747025,
            10
          ],
          [
            3.190975,
            36.747086,
            10
          ],
          [
            3.19132,
            36.747186,
            12
          ],
          [
            3.191337,
            36.747141,
            12
          ],
          [
            3.19135,
            36.74712,
            12
          ],
          [
            3.191377,
            36.74707,
            12
          ],
          [
            3.191559,
            36.747126,
            13
          ],
          [
            3.192501,
            36.747395,
            12
          ],
          [
            3.192737,
            36.747446,
            12
          ],
          [
            3.192777,
            36.74744,
            12
          ],
          [
            3.19282,
            36.747444,
            12
          ],
          [
            3.192855,
            36.747457,
            12
          ],
          [
            3.192884,
            36.747481,
            12
          ],
          [
            3.19311,
            36.747562,
            12
          ],
          [
            3.19334,
            36.747629,
            12
          ],
          [
            3.193606,
            36.747689,
            12
          ],
          [
            3.193895,
            36.747747,
            11
          ],
          [
            3.19422,
            36.747794,
            11
          ],
          [
            3.194628,
            36.747855,
            12
          ],
          [
            3.195405,
            36.747968,
            13
          ],
          [
            3.196097,
            36.748016,
            10
          ],
          [
            3.196781,
            36.748063,
            10
          ],
          [
            3.197088,
            36.748109,
            10
          ],
          [
            3.197076,
            36.74816,
            9
          ],
          [
            3.197088,
            36.748109,
            10
          ],
          [
            3.197076,
            36.74816,
            10
          ],
          [
            3.206485,
            36.749304,
            0
          ],
          [
            3.206497,
            36.749247,
            8
          ],
          [
            3.206486,
            36.749303,
            8
          ],
          [
            3.206497,
            36.749247,
            8
          ],
          [
            3.206485,
            36.749304,
            8
          ],
          [
            3.211992,
            36.750314,
            0
          ],
          [
            3.212031,
            36.750201,
            8
          ],
          [
            3.211992,
            36.750313,
            8
          ],
          [
            3.212031,
            36.750201,
            8
          ],
          [
            3.211992,
            36.750314,
            8
          ],
          [
            3.220095,
            36.753567,
            0
          ],
          [
            3.220146,
            36.753495,
            9
          ],
          [
            3.220095,
            36.753567,
            8
          ],
          [
            3.220146,
            36.753495,
            9
          ],
          [
            3.220444,
            36.753629,
            11
          ],
          [
            3.220937,
            36.753846,
            9
          ],
          [
            3.220956,
            36.753833,
            9
          ],
          [
            3.220978,
            36.753827,
            9
          ],
          [
            3.220999,
            36.753831,
            9
          ],
          [
            3.221015,
            36.753846,
            9
          ],
          [
            3.221023,
            36.753863,
            9
          ],
          [
            3.221015,
            36.753881,
            9
          ],
          [
            3.221045,
            36.753904,
            9
          ],
          [
            3.221214,
            36.753977,
            9
          ],
          [
            3.221538,
            36.754115,
            10
          ],
          [
            3.222383,
            36.754489,
            10
          ],
          [
            3.222507,
            36.754545,
            10
          ],
          [
            3.22337,
            36.754938,
            10
          ],
          [
            3.22396,
            36.755185,
            11
          ],
          [
            3.224014,
            36.755209,
            11
          ],
          [
            3.224086,
            36.755239,
            12
          ],
          [
            3.224278,
            36.755325,
            12
          ],
          [
            3.224218,
            36.755411,
            11
          ],
          [
            3.224159,
            36.755492,
            11
          ],
          [
            3.224217,
            36.75541,
            11
          ],
          [
            3.229404,
            36.758991,
            0
          ],
          [
            3.229483,
            36.758925,
            11
          ],
          [
            3.229405,
            36.758991,
            9
          ],
          [
            3.229483,
            36.758925,
            11
          ],
          [
            3.229404,
            36.758991,
            11
          ],
          [
            3.238426,
            36.766032,
            0
          ],
          [
            3.238315,
            36.766109,
            7
          ],
          [
            3.238425,
            36.766032,
            8
          ],
          [
            3.238315,
            36.766109,
            7
          ],
          [
            3.238426,
            36.766032,
            7
          ],
          [
            3.245156,
            36.77304,
            0
          ],
          [
            3.245052,
            36.773104,
            11
          ],
          [
            3.245155,
            36.773041,
            11
          ],
          [
            3.245052,
            36.773104,
            11
          ],
          [
            3.245156,
            36.77304,
            11
          ],
          [
            3.250163,
            36.777453,
            0
          ],
          [
            3.250175,
            36.7774,
            15
          ],
          [
            3.250163,
            36.777454,
            15
          ],
          [
            3.250175,
            36.7774,
            15
          ],
          [
            3.250163,
            36.777453,
            15
          ],
          [
            3.258862,
            36.777701,
            0
          ],
          [
            3.258877,
            36.777856,
            21
          ],
          [
            3.258861,
            36.777701,
            21
          ],
          [
            3.258877,
            36.777856,
            21
          ],
          [
            3.259097,
            36.777843,
            22
          ],
          [
            3.25947,
            36.777815,
            25
          ],
          [
            3.259628,
            36.777768,
            26
          ],
          [
            3.259669,
            36.777742,
            25
          ],
          [
            3.259709,
            36.777705,
            25
          ],
          [
            3.259746,
            36.777664,
            24
          ],
          [
            3.25976,
            36.777548,
            23
          ],
          [
            3.259717,
            36.777443,
            22
          ],
          [
            3.259618,
            36.777087,
            20
          ],
          [
            3.259564,
            36.776848,
            19
          ],
          [
            3.259526,
            36.776708,
            18
          ],
          [
            3.259438,
            36.776433,
            20
          ],
          [
            3.259341,
            36.776128,
            19
          ],
          [
            3.259175,
            36.775611,
            16
          ],
          [
            3.259183,
            36.775475,
            16
          ],
          [
            3.259207,
            36.775385,
            17
          ],
          [
            3.259441,
            36.774996,
            15
          ],
          [
            3.259491,
            36.774829,
            14
          ],
          [
            3.259521,
            36.774667,
            14
          ],
          [
            3.259537,
            36.774588,
            14
          ],
          [
            3.259534,
            36.774334,
            14
          ],
          [
            3.259483,
            36.774029,
            14
          ],
          [
            3.259426,
            36.77404,
            14
          ],
          [
            3.259398,
            36.773948,
            13
          ],
          [
            3.25947,
            36.77394,
            13
          ],
          [
            3.259403,
            36.773514,
            13
          ],
          [
            3.259443,
            36.77329,
            14
          ],
          [
            3.259583,
            36.773071,
            14
          ],
          [
            3.259559,
            36.773,
            14
          ],
          [
            3.259542,
            36.772962,
            15
          ],
          [
            3.259502,
            36.772856,
            15
          ],
          [
            3.25947,
            36.772609,
            15
          ],
          [
            3.259432,
            36.772364,
            14
          ],
          [
            3.259406,
            36.772117,
            12
          ],
          [
            3.259424,
            36.772113,
            11
          ],
          [
            3.259441,
            36.7721,
            11
          ],
          [
            3.259446,
            36.772083,
            11
          ],
          [
            3.259443,
            36.772068,
            11
          ],
          [
            3.259489,
            36.772051,
            11
          ],
          [
            3.259569,
            36.772031,
            10
          ],
          [
            3.259652,
            36.772012,
            10
          ],
          [
            3.259736,
            36.771997,
            10
          ],
          [
            3.259816,
            36.771986,
            10
          ],
          [
            3.260025,
            36.771963,
            11
          ],
          [
            3.260275,
            36.771937,
            11
          ],
          [
            3.260302,
            36.771935,
            11
          ],
          [
            3.260307,
            36.771973,
            10
          ]
        ]
      },
      "properties": {
        "name": "T1",
        "stroke": "#FFC800"
      }
    }
  ]
}